[{"OBJECT_NAME":"HULIANWANG DIGUI-17","OBJECT_ID":"2025-030G","EPOCH":"2026-03-03T11:35:23.894016","MEAN_MOTION":13.29338055,"ECCENTRICITY":7.42e-5,"INCLINATION":50.0048,"RA_OF_ASC_NODE":254.6875,"ARG_OF_PERICENTER":152.1713,"MEAN_ANOMALY":207.9199,"EPHEMERIS_TYPE":0,"CLASSIFICATION_TYPE":"U","NORAD_CAT_ID":62977,"ELEMENT_SET_NO":999,"REV_AT_EPOCH":5180,"BSTAR":6.6117e-5,"MEAN_MOTION_DOT":-9.3e-7,"MEAN_MOTION_DDOT":0},{"OBJECT_NAME":"HULIANWANG DIGUI-18","OBJECT_ID":"2025-030H","EPOCH":"2026-03-03T11:23:20.446944","MEAN_MOTION":13.2933814,"ECCENTRICITY":7.89e-5,"INCLINATION":50.0052,"RA_OF_ASC_NODE":254.6541,"ARG_OF_PERICENTER":154.8024,"MEAN_ANOMALY":205.2887,"EPHEMERIS_TYPE":0,"CLASSIFICATION_TYPE":"U","NORAD_CAT_ID":62978,"ELEMENT_SET_NO":999,"REV_AT_EPOCH":5180,"BSTAR":7.2531e-5,"MEAN_MOTION_DOT":-9.0e-7,"MEAN_MOTION_DDOT":0},{"OBJECT_NAME":"HULIANWANG DIGUI-19","OBJECT_ID":"2025-030J","EPOCH":"2026-03-03T12:11:10.241088","MEAN_MOTION":13.29341169,"ECCENTRICITY":8.04e-5,"INCLINATION":50.0037,"RA_OF_ASC_NODE":254.7832,"ARG_OF_PERICENTER":148.0663,"MEAN_ANOMALY":212.0258,"EPHEMERIS_TYPE":0,"CLASSIFICATION_TYPE":"U","NORAD_CAT_ID":62979,"ELEMENT_SET_NO":999,"REV_AT_EPOCH":5180,"BSTAR":7.2797e-5,"MEAN_MOTION_DOT":-9.0e-7,"MEAN_MOTION_DDOT":0},{"OBJECT_NAME":"HULIANWANG DIGUI-20","OBJECT_ID":"2025-086A","EPOCH":"2026-03-03T11:36:51.565824","MEAN_MOTION":13.24419947,"ECCENTRICITY":0.00017,"INCLINATION":86.5124,"RA_OF_ASC_NODE":348.7253,"ARG_OF_PERICENTER":92.1692,"MEAN_ANOMALY":267.9637,"EPHEMERIS_TYPE":0,"CLASSIFICATION_TYPE":"U","NORAD_CAT_ID":63687,"ELEMENT_SET_NO":999,"REV_AT_EPOCH":4088,"BSTAR":7.4068e-5,"MEAN_MOTION_DOT":4.6e-7,"MEAN_MOTION_DDOT":0},{"OBJECT_NAME":"HULIANWANG DIGUI-21","OBJECT_ID":"2025-086B","EPOCH":"2026-03-03T11:47:39.079392","MEAN_MOTION":13.24421559,"ECCENTRICITY":0.0001586,"INCLINATION":86.5153,"RA_OF_ASC_NODE":348.7516,"ARG_OF_PERICENTER":94.7031,"MEAN_ANOMALY":265.4285,"EPHEMERIS_TYPE":0,"CLASSIFICATION_TYPE":"U","NORAD_CAT_ID":63688,"ELEMENT_SET_NO":999,"REV_AT_EPOCH":4087,"BSTAR":0.00011877,"MEAN_MOTION_DOT":6.6e-7,"MEAN_MOTION_DDOT":0},{"OBJECT_NAME":"HULIANWANG DIGUI-22","OBJECT_ID":"2025-086C","EPOCH":"2026-03-03T11:58:32.594304","MEAN_MOTION":13.2442124,"ECCENTRICITY":0.0001773,"INCLINATION":86.5118,"RA_OF_ASC_NODE":348.6527,"ARG_OF_PERICENTER":92.4357,"MEAN_ANOMALY":267.698,"EPHEMERIS_TYPE":0,"CLASSIFICATION_TYPE":"U","NORAD_CAT_ID":63689,"ELEMENT_SET_NO":999,"REV_AT_EPOCH":4087,"BSTAR":0.00012817,"MEAN_MOTION_DOT":7.0e-7,"MEAN_MOTION_DDOT":0},{"OBJECT_NAME":"HULIANWANG DIGUI-23","OBJECT_ID":"2025-086D","EPOCH":"2026-03-03T10:31:26.368896","MEAN_MOTION":13.24422055,"ECCENTRICITY":0.0001723,"INCLINATION":86.516,"RA_OF_ASC_NODE":348.8088,"ARG_OF_PERICENTER":88.5817,"MEAN_ANOMALY":271.5514,"EPHEMERIS_TYPE":0,"CLASSIFICATION_TYPE":"U","NORAD_CAT_ID":63690,"ELEMENT_SET_NO":999,"REV_AT_EPOCH":4086,"BSTAR":0.00013983,"MEAN_MOTION_DOT":7.5e-7,"MEAN_MOTION_DDOT":0},{"OBJECT_NAME":"HULIANWANG DIGUI-24","OBJECT_ID":"2025-086E","EPOCH":"2026-03-03T10:42:23.827104","MEAN_MOTION":13.24420185,"ECCENTRICITY":0.0001747,"INCLINATION":86.5167,"RA_OF_ASC_NODE":348.8328,"ARG_OF_PERICENTER":92.8389,"MEAN_ANOMALY":267.2945,"EPHEMERIS_TYPE":0,"CLASSIFICATION_TYPE":"U","NORAD_CAT_ID":63691,"ELEMENT_SET_NO":999,"REV_AT_EPOCH":4086,"BSTAR":0.00012267,"MEAN_MOTION_DOT":6.7e-7,"MEAN_MOTION_DDOT":0},{"OBJECT_NAME":"HULIANWANG DIGUI-25","OBJECT_ID":"2025-086F","EPOCH":"2026-03-03T10:53:14.757792","MEAN_MOTION":13.24421616,"ECCENTRICITY":0.0001643,"INCLINATION":86.5106,"RA_OF_ASC_NODE":348.6532,"ARG_OF_PERICENTER":91.5238,"MEAN_ANOMALY":268.6085,"EPHEMERIS_TYPE":0,"CLASSIFICATION_TYPE":"U","NORAD_CAT_ID":63692,"ELEMENT_SET_NO":999,"REV_AT_EPOCH":4086,"BSTAR":9.9196e-5,"MEAN_MOTION_DOT":5.7e-7,"MEAN_MOTION_DDOT":0},{"OBJECT_NAME":"HULIANWANG DIGUI-26","OBJECT_ID":"2025-086G","EPOCH":"2026-03-03T10:20:27.185280","MEAN_MOTION":13.24421098,"ECCENTRICITY":0.0001717,"INCLINATION":86.5154,"RA_OF_ASC_NODE":348.7864,"ARG_OF_PERICENTER":97.0841,"MEAN_ANOMALY":263.0489,"EPHEMERIS_TYPE":0,"CLASSIFICATION_TYPE":"U","NORAD_CAT_ID":63693,"ELEMENT_SET_NO":999,"REV_AT_EPOCH":4086,"BSTAR":0.0001674,"MEAN_MOTION_DOT":8.6e-7,"MEAN_MOTION_DDOT":0},{"OBJECT_NAME":"HULIANWANG DIGUI-27","OBJECT_ID":"2025-086H","EPOCH":"2026-03-03T11:04:14.085696","MEAN_MOTION":13.24420015,"ECCENTRICITY":0.0001747,"INCLINATION":86.5115,"RA_OF_ASC_NODE":348.685,"ARG_OF_PERICENTER":92.0512,"MEAN_ANOMALY":268.0822,"EPHEMERIS_TYPE":0,"CLASSIFICATION_TYPE":"U","NORAD_CAT_ID":63694,"ELEMENT_SET_NO":999,"REV_AT_EPOCH":4086,"BSTAR":7.6464e-5,"MEAN_MOTION_DOT":4.7e-7,"MEAN_MOTION_DDOT":0},{"OBJECT_NAME":"HULIANWANG DIGUI-28","OBJECT_ID":"2025-086J","EPOCH":"2026-03-03T11:25:53.031072","MEAN_MOTION":13.24421289,"ECCENTRICITY":0.0001744,"INCLINATION":86.5079,"RA_OF_ASC_NODE":348.5851,"ARG_OF_PERICENTER":91.9406,"MEAN_ANOMALY":268.1928,"EPHEMERIS_TYPE":0,"CLASSIFICATION_TYPE":"U","NORAD_CAT_ID":63695,"ELEMENT_SET_NO":999,"REV_AT_EPOCH":4086,"BSTAR":6.8336e-5,"MEAN_MOTION_DOT":4.4e-7,"MEAN_MOTION_DDOT":0},{"OBJECT_NAME":"HULIANWANG DIGUI-29","OBJECT_ID":"2025-086K","EPOCH":"2026-03-03T11:15:06.943968","MEAN_MOTION":13.24420153,"ECCENTRICITY":0.0001625,"INCLINATION":86.5107,"RA_OF_ASC_NODE":348.6672,"ARG_OF_PERICENTER":92.2162,"MEAN_ANOMALY":267.9158,"EPHEMERIS_TYPE":0,"CLASSIFICATION_TYPE":"U","NORAD_CAT_ID":63696,"ELEMENT_SET_NO":999,"REV_AT_EPOCH":4086,"BSTAR":5.493e-5,"MEAN_MOTION_DOT":3.8e-7,"MEAN_MOTION_DDOT":0},{"OBJECT_NAME":"HULIANWANG DIGUI-30","OBJECT_ID":"2025-121A","EPOCH":"2026-03-03T11:25:44.067072","MEAN_MOTION":13.24423331,"ECCENTRICITY":0.0001997,"INCLINATION":86.4944,"RA_OF_ASC_NODE":49.2225,"ARG_OF_PERICENTER":79.385,"MEAN_ANOMALY":280.7509,"EPHEMERIS_TYPE":0,"CLASSIFICATION_TYPE":"U","NORAD_CAT_ID":64283,"ELEMENT_SET_NO":999,"REV_AT_EPOCH":3616,"BSTAR":3.2861e-5,"MEAN_MOTION_DOT":2.9e-7,"MEAN_MOTION_DDOT":0},{"OBJECT_NAME":"HULIANWANG DIGUI-31","OBJECT_ID":"2025-121B","EPOCH":"2026-03-03T11:15:10.109664","MEAN_MOTION":13.2441954,"ECCENTRICITY":0.0002033,"INCLINATION":86.4965,"RA_OF_ASC_NODE":49.2752,"ARG_OF_PERICENTER":79.6014,"MEAN_ANOMALY":280.5349,"EPHEMERIS_TYPE":0,"CLASSIFICATION_TYPE":"U","NORAD_CAT_ID":64284,"ELEMENT_SET_NO":999,"REV_AT_EPOCH":3616,"BSTAR":5.5537e-5,"MEAN_MOTION_DOT":3.8e-7,"MEAN_MOTION_DDOT":0},{"OBJECT_NAME":"HULIANWANG DIGUI-32","OBJECT_ID":"2025-121C","EPOCH":"2026-03-03T11:03:47.312064","MEAN_MOTION":13.24425235,"ECCENTRICITY":0.0002012,"INCLINATION":86.4906,"RA_OF_ASC_NODE":49.1083,"ARG_OF_PERICENTER":81.6809,"MEAN_ANOMALY":278.4553,"EPHEMERIS_TYPE":0,"CLASSIFICATION_TYPE":"U","NORAD_CAT_ID":64285,"ELEMENT_SET_NO":999,"REV_AT_EPOCH":3616,"BSTAR":0.00011119,"MEAN_MOTION_DOT":6.2e-7,"MEAN_MOTION_DDOT":0}]
