HULIANWANG DIGUI-17     
1 62977U 25030G   26062.48291544 -.00000093  00000+0  66117-4 0  9991
2 62977  50.0048 254.6875 0000742 152.1713 207.9199 13.29338055 51800
HULIANWANG DIGUI-18     
1 62978U 25030H   26062.47454221 -.00000090  00000+0  72531-4 0  9998
2 62978  50.0052 254.6541 0000789 154.8024 205.2887 13.29338140 51801
HULIANWANG DIGUI-19     
1 62979U 25030J   26062.50775742 -.00000090  00000+0  72797-4 0  9991
2 62979  50.0037 254.7832 0000804 148.0663 212.0258 13.29341169 51804
HULIANWANG DIGUI-20     
1 63687U 25086A   26062.48393016  .00000046  00000+0  74068-4 0  9999
2 63687  86.5124 348.7253 0001700  92.1692 267.9637 13.24419947 40881
HULIANWANG DIGUI-21     
1 63688U 25086B   26062.49142453  .00000066  00000+0  11877-3 0  9998
2 63688  86.5153 348.7516 0001586  94.7031 265.4285 13.24421559 40876
HULIANWANG DIGUI-22     
1 63689U 25086C   26062.49898836  .00000070  00000+0  12817-3 0  9992
2 63689  86.5118 348.6527 0001773  92.4357 267.6980 13.24421240 40876
HULIANWANG DIGUI-23     
1 63690U 25086D   26062.43849964  .00000075  00000+0  13983-3 0  9996
2 63690  86.5160 348.8088 0001723  88.5817 271.5514 13.24422055 40862
HULIANWANG DIGUI-24     
1 63691U 25086E   26062.44610911  .00000067  00000+0  12267-3 0  9991
2 63691  86.5167 348.8328 0001747  92.8389 267.2945 13.24420185 40867
HULIANWANG DIGUI-25     
1 63692U 25086F   26062.45364303  .00000057  00000+0  99196-4 0  9990
2 63692  86.5106 348.6532 0001643  91.5238 268.6085 13.24421616 40860
HULIANWANG DIGUI-26     
1 63693U 25086G   26062.43087020  .00000086  00000+0  16740-3 0  9992
2 63693  86.5154 348.7864 0001717  97.0841 263.0489 13.24421098 40867
HULIANWANG DIGUI-27     
1 63694U 25086H   26062.46127414  .00000047  00000+0  76464-4 0  9995
2 63694  86.5115 348.6850 0001747  92.0512 268.0822 13.24420015 40866
HULIANWANG DIGUI-28     
1 63695U 25086J   26062.47630823  .00000044  00000+0  68336-4 0  9996
2 63695  86.5079 348.5851 0001744  91.9406 268.1928 13.24421289 40865
HULIANWANG DIGUI-29     
1 63696U 25086K   26062.46883037  .00000038  00000+0  54930-4 0  9991
2 63696  86.5107 348.6672 0001625  92.2162 267.9158 13.24420153 40862
HULIANWANG DIGUI-30     
1 64283U 25121A   26062.47620448  .00000029  00000+0  32861-4 0  9999
2 64283  86.4944  49.2225 0001997  79.3850 280.7509 13.24423331 36165
HULIANWANG DIGUI-31     
1 64284U 25121B   26062.46886701  .00000038  00000+0  55537-4 0  9990
2 64284  86.4965  49.2752 0002033  79.6014 280.5349 13.24419540 36168
HULIANWANG DIGUI-32     
1 64285U 25121C   26062.46096426  .00000062  00000+0  11119-3 0  9992
2 64285  86.4906  49.1083 0002012  81.6809 278.4553 13.24425235 36163
